MOLNIYA 1-80            
1 21118U 91012A   13082.04151303  .00001386  00000-0  70176-3 0  2745
2 21118  61.5914  63.2632 7474155 274.4896  30.5474  2.00295062161924
MOLNIYA 3-40            
1 21196U 91022A   13082.97567314  .00001705  00000-0  48002-3 0  7852
2 21196  61.9334  42.0735 7494170 278.1168  27.3859  2.01155147161247
MOLNIYA 1-81            
1 21426U 91043A   13081.96107988 -.00000084  00000-0 -28977-2 0  8373
2 21426  62.4006  45.3251 7360548 278.8551  28.7778  2.00624513159472
MOLNIYA 3-41            
1 21706U 91065A   13081.36738031 -.00001010  00000-0  23694-1 0  1283
2 21706  63.4488 203.6193 7054421 284.8233  27.5783  2.04361194157980
MOLNIYA 3-42            
1 22178U 92067A   13082.78392865  .00002673  00000-0  31019-3 0  5043
2 22178  62.5701 328.3890 7361373 282.9533  25.2947  2.19960817150185
MOLNIYA 1-86            
1 22671U 93035A   13082.35097516  .00040076  00000-0  11571-2 0  4683
2 22671  62.7046  60.9086 5181910 299.4605  18.7917  5.42602394163035
MOLNIYA 3-45            
1 22729U 93049A   13081.96861731  .00001331  00000-0  88401-3 0  5292
2 22729  61.9982  76.3229 7498312 270.7224  12.8648  2.01325875143826
MOLNIYA 1-87            
1 22949U 93079A   13081.42880428  .00001134  00000-0  47532-2 0   570
2 22949  61.6079 209.6472 7294805 261.4210  17.6724  2.00197712141099
MOLNIYA 1-88            
1 23420U 94081A   13082.96405373  .00134790  12614-4  10415-3 0  7729
2 23420  62.4790   6.9789 6950719 282.1124  13.5302  2.79499995134732
MOLNIYA 3-47            
1 23642U 95042A   13079.33973675  .00000275  00000-0 -21785-2 0   340
2 23642  61.8760 186.9377 7271265 264.7388  16.6114  2.00578965129076
MOLNIYA 1-90            
1 24960U 97054A   13080.96862721  .00000670  00000-0  39795-3 0  5163
2 24960  61.9781 222.4526 7364017 263.5548 335.0341  2.04626596113766
MOLNIYA 1-91            
1 25485U 98054A   13083.14715704  .00000006  00000-0  10000-3 0  9028
2 25485  63.1369   3.5712 7432864 254.5084 260.0422  2.00620160106116
MOLNIYA 3-50            
1 25847U 99036A   13081.66963851  .00000276  00000-0  00000+0 0  4551
2 25847  63.3706 116.9293 7047552 257.6947  37.5314  2.00582828100429
MOLNIYA 3-51            
1 26867U 01030A   13083.14715704 -.00000095  00000-0  00000+0 0  3412
2 26867  63.5605  23.5920 7497370 254.4546 229.6909  2.00620103 85569
MOLNIYA 1-92            
1 27707U 03011A   13083.15404731  .00049725 -41928-6  10525-3 0  4694
2 27707  64.0439  29.6779 7520585 243.5681  62.2538  2.04419717 73115
MOLNIYA 3-53            
1 27834U 03029A   13083.01232800  .00019936 -16493-5  16637-3 0  7057
2 27834  64.0516  30.5594 7527812 243.7410  60.8055  2.02474080 71523
MOLNIYA 1-93            
1 28163U 04005A   13082.46788410  .00000083  00000-0  10000-3 0   942
2 28163  64.7163 134.1742 7063854 252.3506 228.8927  2.00637913 66626
